ONEWEB-0271             
1 48989U 21060Y   25064.19361156  .00000010  00000+0 -71012-5 0  9993
2 48989  87.9109 322.2481 0002010  80.7282 279.4076 13.16594783179241
ONEWEB-0272             
1 48990U 21060Z   25064.13978112  .00000060  00000+0  12332-3 0  9997
2 48990  87.9108 322.2909 0001987  80.4248 279.7107 13.16595126179192
ONEWEB-0273             
1 48991U 21060AA  25064.23792844  .00000222  00000+0  54815-3 0  9997
2 48991  87.9109 322.2563 0001883  75.4864 284.6476 13.16595338179181
ONEWEB-0274             
1 48992U 21060AB  25064.18728021  .00000031  00000+0  47889-4 0  9990
2 48992  87.9118 322.2971 0001843  92.6691 267.4650 13.16594847179211
ONEWEB-0275             
1 48993U 21060AC  25064.17619126  .00000133  00000+0  31523-3 0  9995
2 48993  87.9112 322.2628 0001844  81.7740 278.3600 13.16594049179131
ONEWEB-0276             
1 48994U 21060AD  25064.20943741  .00000010  00000+0 -86928-5 0  9999
2 48994  87.9110 322.2527 0001961  75.4343 284.7005 13.16595705179160
ONEWEB-0277             
1 48995U 21060AE  25063.69012018  .00000028  00000+0  38621-4 0  9990
2 48995  87.9106 322.3933 0002174  82.0459 278.0919 13.16594582177785
ONEWEB-0278             
1 48996U 21060AF  25064.44060305  .00002875  00000+0  74867-2 0  9999
2 48996  87.9108 322.2035 0001654  74.9518 285.1796 13.16581241179320
ONEWEB-0279             
1 48997U 21060AG  25064.44852072  .00000013  00000+0  15671-5 0  9993
2 48997  87.9107 322.1986 0002029  84.8891 275.2472 13.16594926179241
ONEWEB-0280             
1 48998U 21060AH  25064.23556016  .00000155  00000+0  37070-3 0  9992
2 48998  87.9109 322.2461 0001989  71.1553 288.9793 13.16592879179142
ONEWEB-0281             
1 48999U 21060AJ  25064.16511585  .00000192  00000+0  46942-3 0  9996
2 48999  87.9109 322.2591 0001660  84.2579 275.8741 13.16594936179229
ONEWEB-0282             
1 49000U 21060AK  25064.19518581  .00000052  00000+0  10196-3 0  9993
2 49000  87.9110 322.2697 0001996  77.5440 282.5914 13.16592493179218
ONEWEB-0283             
1 49001U 21060AL  25064.18411192  .00000113  00000+0  26102-3 0  9995
2 49001  87.9111 322.2754 0001948  82.9721 277.1631 13.16595370179227
ONEWEB-0284             
1 49002U 21060AM  25064.17778071  .00000201  00000+0  49177-3 0  9992
2 49002  87.9103 322.2453 0001679  66.7332 293.3976 13.16598318179197
ONEWEB-0285             
1 49075U 21075A   25063.74431136  .00002119  00000+0  58533-2 0  9993
2 49075  87.8799  84.1051 0001920  89.6621 270.4727 13.12455416173639
ONEWEB-0286             
1 49076U 21075B   25063.79202968  .00000080  00000+0  18799-3 0  9994
2 49076  87.8797  84.0901 0001640  94.0604 266.0712 13.12442304172996
ONEWEB-0287             
1 49077U 21075C   25064.56455888  .00000025  00000+0  31696-4 0  9993
2 49077  87.9021  99.2188 0001501  97.4176 262.7126 13.17649605172888
ONEWEB-0288             
1 49078U 21075D   25064.54060433  .00000705  00000+0  19239-2 0  9992
2 49078  87.8795  83.9425 0001855  87.0049 273.1292 13.12450680174707
ONEWEB-0289             
1 49079U 21075E   25064.51730653  .00000030  00000+0  43249-4 0  9999
2 49079  87.9020  99.2587 0001995  79.6324 280.5032 13.17646327173452
ONEWEB-0290             
1 49080U 21075F   25064.12075862 -.00000024  00000+0 -95674-4 0  9996
2 49080  87.9018  99.2952 0002355  79.2275 280.9121 13.17649160172820
ONEWEB-0291             
1 49081U 21075G   25064.56118718  .00000020  00000+0  19142-4 0  9993
2 49081  87.9014  99.2155 0001761  89.5091 270.6242 13.17648094172883
ONEWEB-0293             
1 49082U 21075H   25064.51055449 -.00000027  00000+0 -10297-3 0  9990
2 49082  87.9016  99.2525 0001988  90.9238 269.2122 13.17646370172894
ONEWEB-0294             
1 49083U 21075J   25064.08967691 -.00000237  00000+0 -69339-3 0  9998
2 49083  87.8796  84.0322 0001895  74.6204 285.5134 13.12444166174031
ONEWEB-0295             
1 49084U 21075K   25064.50970842  .00000032  00000+0  48281-4 0  9993
2 49084  87.9020  99.2335 0001571  92.1660 267.9651 13.17650368172839
ONEWEB-0296             
1 49085U 21075L   25064.52762032 -.00000234  00000+0 -68573-3 0  9997
2 49085  87.8800  83.9509 0001419  75.0526 285.0759 13.12443031174092
ONEWEB-0297             
1 49086U 21075M   25064.55843830  .00000081  00000+0  18950-3 0  9999
2 49086  87.8808  83.9711 0001829  93.4489 266.6849 13.12444843174708
ONEWEB-0298             
1 49087U 21075N   25064.13438727 -.00000004  00000+0 -43929-4 0  9991
2 49087  87.9018  99.3250 0001784 100.1298 260.0035 13.17646737172845
ONEWEB-0299             
1 49088U 21075P   25064.13594166 -.00000002  00000+0 -37194-4 0  9997
2 49088  87.9014  99.2827 0001729 100.7341 259.3985 13.17647906172805
ONEWEB-0300             
1 49089U 21075Q   25064.09292503 -.00000100  00000+0 -31452-3 0  9992
2 49089  87.8798  84.0298 0002110 100.9632 259.1734 13.12443510174664
ONEWEB-0301             
1 49090U 21075R   25064.53411837 -.00000523  00000+0 -14888-2 0  9998
2 49090  87.8804  83.9459 0002097  99.0501 261.0865 13.12442910174084
ONEWEB-0302             
1 49091U 21075S   25064.06372729 -.00000091  00000+0 -28773-3 0  9992
2 49091  87.8801  84.0413 0001838  78.9241 281.2094 13.12442272174015
ONEWEB-0304             
1 49092U 21075T   25064.56624691 -.00000027  00000+0 -10324-3 0  9998
2 49092  87.9020  99.2228 0001770  94.1783 265.9551 13.17647538172841
ONEWEB-0305             
1 49093U 21075U   25064.17980729  .00000083  00000+0  17969-3 0  9995
2 49093  87.9017  99.2802 0001485  99.8503 260.2796 13.17648836172819
ONEWEB-0308             
1 49094U 21075V   25063.75229308  .00000063  00000+0  14080-3 0  9997
2 49094  87.8799  84.0998 0001956  93.4674 266.6678 13.12441268172988
ONEWEB-0309             
1 49095U 21075W   25064.56287546  .00000014  00000+0  40368-5 0  9992
2 49095  87.9020  99.2166 0001970  80.0947 280.0406 13.17648076172859
ONEWEB-0310             
1 49096U 21075X   25063.76687253 -.00000321  00000+0 -92904-3 0  9997
2 49096  87.8809  84.1287 0001898  87.2615 272.8730 13.12443485173617
ONEWEB-0311             
1 49097U 21075Y   25064.56962466  .00000006  00000+0 -17969-4 0  9997
2 49097  87.9020  99.2167 0001561 102.2121 257.9185 13.17648326172911
ONEWEB-0312             
1 49098U 21075Z   25064.12919198 -.00000010  00000+0 -60249-4 0  9999
2 49098  87.9018  99.3356 0001574  88.0572 272.0740 13.17647819172815
ONEWEB-0313             
1 49099U 21075AA  25064.13412015  .00000004  00000+0 -22146-4 0  9993
2 49099  87.9018  99.3504 0001673  92.9426 267.1897 13.17648348172820
ONEWEB-0314             
1 49100U 21075AB  25063.79675217  .00000005  00000+0 -21525-4 0  9993
2 49100  87.9016  99.3532 0001521  89.7599 270.3707 13.17648185171755
ONEWEB-0315             
1 49101U 21075AC  25064.04588061  .00001210  00000+0  33272-2 0  9991
2 49101  87.8796  84.0322 0001571 103.2534 256.8769 13.12448351174639
ONEWEB-0316             
1 49102U 21075AD  25064.54626007 -.00000032  00000+0 -11350-3 0  9997
2 49102  87.9055  68.6525 0001735  92.7977 267.3353 13.18684757176453
ONEWEB-0317             
1 49103U 21075AE  25064.57304981 -.00000343  00000+0 -98820-3 0  9997
2 49103  87.8796  83.9400 0001998  80.3929 279.7425 13.12449390174718
ONEWEB-0318             
1 49104U 21075AF  25064.23958970  .00000084  00000+0  18114-3 0  9992
2 49104  87.9052  68.7005 0001629  94.1824 265.9494 13.18685479176367
ONEWEB-0319             
1 49105U 21075AG  25064.57130535 -.00000043  00000+0 -14458-3 0  9993
2 49105  87.9019  99.2412 0001500 103.0594 257.0705 13.17647298172880
ONEWEB-0323             
1 49106U 21075AH  25064.10590283  .00000269  00000+0  71349-3 0  9993
2 49106  87.8799  84.0199 0001191 104.6864 255.4396 13.12443857174028
ONEWEB-0329             
1 49107U 21075AJ  25064.12413034  .00000012  00000+0 -13837-5 0  9991
2 49107  87.9019  99.3351 0001719  93.9799 266.1529 13.17648015172806
ONEWEB-0330             
1 49108U 21075AK  25064.12581875 -.00000011  00000+0 -62224-4 0  9994
2 49108  87.9019  99.3368 0001768  88.7346 271.3988 13.17648183172846
ONEWEB-0292             
1 49186U 21083A   25063.91082897 -.00000550  00000+0 -15452-2 0  9992
2 49186  87.8903  53.5395 0001753  90.7412 269.3917 13.13340691169323
ONEWEB-0303             
1 49187U 21083B   25064.53993551  .00000031  00000+0  44962-4 0  9992
2 49187  87.9053  68.6425 0001729  93.9610 266.1720 13.18684565169491
ONEWEB-0306             
1 49188U 21083C   25063.92344242 -.00000106  00000+0 -30114-3 0  9990
2 49188  87.9051  68.7509 0001990  84.3341 275.8018 13.18684793168173
ONEWEB-0307             
1 49189U 21083D   25063.90512605 -.00000149  00000+0 -44391-3 0  9998
2 49189  87.8904  53.5435 0002050  77.2087 282.9271 13.13380008169321
ONEWEB-0320             
1 49190U 21083E   25063.92976621 -.00000110  00000+0 -31305-3 0  9993
2 49190  87.9052  68.7776 0001883  88.4444 271.6904 13.18684623168139
ONEWEB-0321             
1 49191U 21083F   25063.88762600  .00000008  00000+0 -11772-4 0  9991
2 49191  87.9321   7.8262 0002062  79.2616 280.8750 13.20770929174880
ONEWEB-0322             
1 49192U 21083G   25063.90105646 -.00000110  00000+0 -33729-3 0  9996
2 49192  87.8905  53.5338 0002266  81.7448 278.3938 13.13405103169310
ONEWEB-0324             
1 49193U 21083H   25064.52254189  .00000084  00000+0  18132-3 0  9992
2 49193  87.9051  68.6386 0001702  84.9618 275.1708 13.18685110169517
ONEWEB-0325             
1 49194U 21083J   25063.76852363  .00000016  00000+0  73942-5 0  9993
2 49194  87.9051  68.8064 0001980  88.0008 272.1351 13.18686116168145
ONEWEB-0326             
1 49195U 21083K   25064.54151992  .00000005  00000+0 -20544-4 0  9999
2 49195  87.9052  68.6444 0001587  98.2844 261.8468 13.18685579169519
ONEWEB-0327             
1 49196U 21083L   25064.08545323 -.00000049  00000+0 -15824-3 0  9997
2 49196  87.9051  68.7627 0001727  98.8789 261.2539 13.18683024169474
